{"type": "FeatureCollection", "features": [ {"type": "Feature", "properties": {"norad_id": 28649, "name": "IRS-P5 (CARTOSAT-1)", "group": "resource", "lat": 1.5743206435084403, "lon": 16.41859280495156, "alt_km": 598.941006502756, "timestamp": "2025-12-16T08:59:42.814948+00:00", "meta": {"OBJECT_NAME": "IRS-P5 (CARTOSAT-1)", "OBJECT_ID": "2005-017A", "EPOCH": "2025-12-15T21:42:32.849568", "MEAN_MOTION": 14.904177, "ECCENTRICITY": 0.00010601, "INCLINATION": 97.5496, "RA_OF_ASC_NODE": 16.178, "ARG_OF_PERICENTER": 48.1123, "MEAN_ANOMALY": 312.0186, "EPHEMERIS_TYPE": 0, "CLASSIFICATION_TYPE": "U", "NORAD_CAT_ID": 28649, "ELEMENT_SET_NO": 999, "REV_AT_EPOCH": 11651, "BSTAR": 0.00016389445, "MEAN_MOTION_DOT": 1.544e-05, "MEAN_MOTION_DDOT": 0}, "tle": {"line1": "1 28649U 05017A   25349.90454687  .00001544  00000+0  16389-3 0  9991", "line2": "2 28649  97.5496  16.1780 0001060  48.1123 312.0186 14.90417700116518"}}, "geometry": {"type": "Point", "coordinates": [16.41859280495156, 1.5743206435084403]}}, {"type": "Feature", "properties": {"norad_id": 28893, "name": "SINAH 1", "group": "resource", "lat": 9.340557976715733, "lon": 117.57235098011847, "alt_km": 686.9771584548807, "timestamp": "2025-12-16T08:59:42.814959+00:00", "meta": {"OBJECT_NAME": "SINAH 1", "OBJECT_ID": "2005-043D", "EPOCH": "2025-12-15T21:28:10.740864", "MEAN_MOTION": 14.63966015, "ECCENTRICITY": 0.00154828, "INCLINATION": 98.2605, "RA_OF_ASC_NODE": 118.4602, "ARG_OF_PERICENTER": 127.7099, "MEAN_ANOMALY": 232.551, "EPHEMERIS_TYPE": 0, "CLASSIFICATION_TYPE": "U", "NORAD_CAT_ID": 28893, "ELEMENT_SET_NO": 999, "REV_AT_EPOCH": 7370, "BSTAR": 9.1674571e-05, "MEAN_MOTION_DOT": 4.32e-06, "MEAN_MOTION_DDOT": 0}, "tle": {"line1": "1 28893U 05043D   25349.89456876  .00000432  00000+0  91675-4 0  9998", "line2": "2 28893  98.2605 118.4602 0015482 127.7099 232.5510 14.63966015 73705"}}, "geometry": {"type": "Point", "coordinates": [117.57235098011847, 9.340557976715733]}}, {"type": "Feature", "properties": {"norad_id": 29079, "name": "EROS B", "group": "resource", "lat": -49.79579700102817, "lon": 115.90491219295085, "alt_km": 365.6139666849358, "timestamp": "2025-12-16T08:59:42.814971+00:00", "meta": {"OBJECT_NAME": "EROS B", "OBJECT_ID": "2006-014A", "EPOCH": "2025-12-15T22:29:49.835040", "MEAN_MOTION": 15.69294671, "ECCENTRICITY": 0.00028297, "INCLINATION": 97.3464, "RA_OF_ASC_NODE": 106.6654, "ARG_OF_PERICENTER": 310.8296, "MEAN_ANOMALY": 49.272, "EPHEMERIS_TYPE": 0, "CLASSIFICATION_TYPE": "U", "NORAD_CAT_ID": 29079, "ELEMENT_SET_NO": 999, "REV_AT_EPOCH": 9130, "BSTAR": 0.0011709616, "MEAN_MOTION_DOT": 0.00138414, "MEAN_MOTION_DDOT": 0}, "tle": {"line1": "1 29079U 06014A   25349.93738235  .00138414  00000+0  11710-2 0  9993", "line2": "2 29079  97.3464 106.6654 0002829 310.8296  49.2720 15.69294671 91307"}}, "geometry": {"type": "Point", "coordinates": [115.90491219295085, -49.79579700102817]}}, {"type": "Feature", "properties": {"norad_id": 29228, "name": "RESURS-DK 1", "group": "resource", "lat": -27.814663247164763, "lon": -76.43609734143814, "alt_km": 531.4462540285631, "timestamp": "2025-12-16T08:59:42.814982+00:00", "meta": {"OBJECT_NAME": "RESURS-DK 1", "OBJECT_ID": "2006-021A", "EPOCH": "2025-12-15T17:46:56.540352", "MEAN_MOTION": 15.12179153, "ECCENTRICITY": 0.00069743, "INCLINATION": 69.9335, "RA_OF_ASC_NODE": 94.0823, "ARG_OF_PERICENTER": 256.9262, "MEAN_ANOMALY": 103.1125, "EPHEMERIS_TYPE": 0, "CLASSIFICATION_TYPE": "U", "NORAD_CAT_ID": 29228, "ELEMENT_SET_NO": 999, "REV_AT_EPOCH": 7483, "BSTAR": 0.00013214008, "MEAN_MOTION_DOT": 2.179e-05, "MEAN_MOTION_DDOT": 0}, "tle": {"line1": "1 29228U 06021A   25349.74093218  .00002179  00000+0  13214-3 0  9991", "line2": "2 29228  69.9335  94.0823 0006974 256.9262 103.1125 15.12179153 74834"}}, "geometry": {"type": "Point", "coordinates": [-76.43609734143814, -27.814663247164763]}}, {"type": "Feature", "properties": {"norad_id": 29268, "name": "ARIRANG-2 (KOMPSAT-2)", "group": "resource", "lat": -75.76442288850525, "lon": -148.50063370120986, "alt_km": 676.9130580904603, "timestamp": "2025-12-16T08:59:42.814994+00:00", "meta": {"OBJECT_NAME": "ARIRANG-2 (KOMPSAT-2)", "OBJECT_ID": "2006-031A", "EPOCH": "2025-12-16T00:12:13.436640", "MEAN_MOTION": 14.64497764, "ECCENTRICITY": 0.00133533, "INCLINATION": 97.8262, "RA_OF_ASC_NODE": 178.3218, "ARG_OF_PERICENTER": 298.12, "MEAN_ANOMALY": 213.7654, "EPHEMERIS_TYPE": 0, "CLASSIFICATION_TYPE": "U", "NORAD_CAT_ID": 29268, "ELEMENT_SET_NO": 999, "REV_AT_EPOCH": 3466, "BSTAR": 0.00010592181, "MEAN_MOTION_DOT": 5.17e-06, "MEAN_MOTION_DDOT": 0}, "tle": {"line1": "1 29268U 06031A   25350.00848885  .00000517  00000+0  10592-3 0  9995", "line2": "2 29268  97.8262 178.3218 0013353 298.1200 213.7654 14.64497764 34669"}}, "geometry": {"type": "Point", "coordinates": [-148.50063370120986, -75.76442288850525]}}, {"type": "Feature", "properties": {"norad_id": 29709, "name": "LAPAN-TUBSAT", "group": "resource", "lat": 45.748964240857354, "lon": 169.04001439546843, "alt_km": 604.2569036347995, "timestamp": "2025-12-16T08:59:42.815005+00:00", "meta": {"OBJECT_NAME": "LAPAN-TUBSAT", "OBJECT_ID": "2007-001A", "EPOCH": "2025-12-15T22:41:55.980384", "MEAN_MOTION": 14.85679591, "ECCENTRICITY": 0.00135662, "INCLINATION": 98.1259, "RA_OF_ASC_NODE": 340.1685, "ARG_OF_PERICENTER": 64.8879, "MEAN_ANOMALY": 295.3741, "EPHEMERIS_TYPE": 0, "CLASSIFICATION_TYPE": "U", "NORAD_CAT_ID": 29709, "ELEMENT_SET_NO": 999, "REV_AT_EPOCH": 2394, "BSTAR": 0.00017446227, "MEAN_MOTION_DOT": 1.457e-05, "MEAN_MOTION_DDOT": 0}, "tle": {"line1": "1 29709U 07001A   25349.94578681  .00001457  00000+0  17446-3 0  9997", "line2": "2 29709  98.1259 340.1685 0013566  64.8879 295.3741 14.85679591 23947"}}, "geometry": {"type": "Point", "coordinates": [169.04001439546843, 45.748964240857354]}}, {"type": "Feature", "properties": {"norad_id": 31113, "name": "HAIYANG-1B", "group": "resource", "lat": 23.378036932999063, "lon": -29.12924033896296, "alt_km": 777.8943794811084, "timestamp": "2025-12-16T08:59:42.815016+00:00", "meta": {"OBJECT_NAME": "HAIYANG-1B", "OBJECT_ID": "2007-010A", "EPOCH": "2025-12-15T22:48:59.283360", "MEAN_MOTION": 14.30966132, "ECCENTRICITY": 0.00141214, "INCLINATION": 98.3317, "RA_OF_ASC_NODE": 334.0962, "ARG_OF_PERICENTER": 28.9264, "MEAN_ANOMALY": 331.2699, "EPHEMERIS_TYPE": 0, "CLASSIFICATION_TYPE": "U", "NORAD_CAT_ID": 31113, "ELEMENT_SET_NO": 999, "REV_AT_EPOCH": 97442, "BSTAR": 6.2067386e-05, "MEAN_MOTION_DOT": 1.22e-06, "MEAN_MOTION_DDOT": 0}, "tle": {"line1": "1 31113U 07010A   25349.95068615  .00000122  00000+0  62067-4 0  9999", "line2": "2 31113  98.3317 334.0962 0014121  28.9264 331.2699 14.30966132974423"}}, "geometry": {"type": "Point", "coordinates": [-29.12924033896296, 23.378036932999063]}}, {"type": "Feature", "properties": {"norad_id": 31598, "name": "COSMO-SKYMED 1", "group": "resource", "lat": -41.086861009515495, "lon": -11.14201886031958, "alt_km": 587.2141998335728, "timestamp": "2025-12-16T08:59:42.815027+00:00", "meta": {"OBJECT_NAME": "COSMO-SKYMED 1", "OBJECT_ID": "2007-023A", "EPOCH": "2025-12-15T23:58:50.708928", "MEAN_MOTION": 14.95790824, "ECCENTRICITY": 0.0001466, "INCLINATION": 97.8834, "RA_OF_ASC_NODE": 175.4194, "ARG_OF_PERICENTER": 88.9185, "MEAN_ANOMALY": 271.2204, "EPHEMERIS_TYPE": 0, "CLASSIFICATION_TYPE": "U", "NORAD_CAT_ID": 31598, "ELEMENT_SET_NO": 999, "REV_AT_EPOCH": 239, "BSTAR": 0.00032306812, "MEAN_MOTION_DOT": 3.545e-05, "MEAN_MOTION_DDOT": 0}, "tle": {"line1": "1 31598U 07023A   25349.99919802  .00003545  00000+0  32307-3 0  9992", "line2": "2 31598  97.8834 175.4194 0001466  88.9185 271.2204 14.95790824  2395"}}, "geometry": {"type": "Point", "coordinates": [-11.14201886031958, -41.086861009515495]}}, {"type": "Feature", "properties": {"norad_id": 31698, "name": "TERRASAR-X", "group": "resource", "lat": -2.6922651030652784, "lon": 175.34943341677055, "alt_km": 512.0309719546422, "timestamp": "2025-12-16T08:59:42.815038+00:00", "meta": {"OBJECT_NAME": "TERRASAR-X", "OBJECT_ID": "2007-026A", "EPOCH": "2025-12-15T11:38:35.503296", "MEAN_MOTION": 15.19146195, "ECCENTRICITY": 0.00016725, "INCLINATION": 97.4453, "RA_OF_ASC_NODE": 354.825, "ARG_OF_PERICENTER": 86.3192, "MEAN_ANOMALY": 273.8234, "EPHEMERIS_TYPE": 0, "CLASSIFICATION_TYPE": "U", "NORAD_CAT_ID": 31698, "ELEMENT_SET_NO": 999, "REV_AT_EPOCH": 2533, "BSTAR": 7.6554338e-05, "MEAN_MOTION_DOT": 1.541e-05, "MEAN_MOTION_DDOT": 0}, "tle": {"line1": "1 31698U 07026A   25349.48513314  .00001541  00000+0  76554-4 0  9995", "line2": "2 31698  97.4453 354.8250 0001672  86.3192 273.8234 15.19146195 25337"}}, "geometry": {"type": "Point", "coordinates": [175.34943341677055, -2.6922651030652784]}}, {"type": "Feature", "properties": {"norad_id": 32060, "name": "WORLDVIEW-1 (WV-1)", "group": "resource", "lat": -74.84598821944861, "lon": -100.80342716407267, "alt_km": 499.3557370382614, "timestamp": "2025-12-16T08:59:42.815049+00:00", "meta": {"OBJECT_NAME": "WORLDVIEW-1 (WV-1)", "OBJECT_ID": "2007-041A", "EPOCH": "2025-12-15T14:32:50.082144", "MEAN_MOTION": 15.24740329, "ECCENTRICITY": 8.461e-05, "INCLINATION": 97.3836, "RA_OF_ASC_NODE": 107.0465, "ARG_OF_PERICENTER": 113.8111, "MEAN_ANOMALY": 246.3216, "EPHEMERIS_TYPE": 0, "CLASSIFICATION_TYPE": "U", "NORAD_CAT_ID": 32060, "ELEMENT_SET_NO": 999, "REV_AT_EPOCH": 1491, "BSTAR": 0.00026564044, "MEAN_MOTION_DOT": 6.507e-05, "MEAN_MOTION_DDOT": 0}, "tle": {"line1": "1 32060U 07041A   25349.60613521  .00006507  00000+0  26564-3 0  9993", "line2": "2 32060  97.3836 107.0465 0000846 113.8111 246.3216 15.24740329 14912"}}, "geometry": {"type": "Point", "coordinates": [-100.80342716407267, -74.84598821944861]}}]}